RADCAL                  
1 22698U 93041A   08205.62753381  .00000245  00000-0  10000-3 0  1058
2 22698  89.5173  44.8775 0088052 311.4256  47.9449 14.22798856782558
STRV 1A                 
1 23125U 94034B   08203.26041221 -.00000808  00000-0 -18684-3 0  2287
2 23125   7.3529 268.5432 6854061 295.7673  10.5409  2.82607454130045
STRV 1B                 
1 23126U 94034C   08202.31664821  .00002254  00000-0  31986-3 0  2566
2 23126   7.0911 220.0327 6818216  31.2457 355.5975  2.89631604132008
HELIOS 1A               
1 23605U 95033A   08206.07909893  .00000004  00000-0  97802-5 0  2377
2 23605  98.1278 141.4085 0002119  38.4627 321.6724 14.63841847697170
REX 2                   
1 23814U 96014A   08206.11015481  .00000053  00000-0  18315-4 0  4394
2 23814  90.1569 266.3710 0021038 311.3922  48.5467 14.23845488642867
COSMOS 2346             
1 24953U 97052A   08205.16177379  .00000013  00000-0 -21046-5 0  2145
2 24953  82.9203 201.9718 0039881 338.5725  21.3762 13.79432483545266
ARGOS                   
1 25634U 99008A   08205.36149564 -.00000214  00000-0 -80469-4 0  4804
2 25634  99.0482 230.2571 0010172 159.3290 200.8284 14.18893670487419
HELIOS 1B               
1 25977U 99064A   08206.01147257 -.00001327  00000-0 -17808-3 0  4000
2 25977  98.3168 189.6564 0000836 337.8289  22.2874 14.77603184463462
MTI                     
1 26102U 00014A   08206.21181538  .00000299  00000-0  21114-4 0  7217
2 26102  97.1937  23.0443 0020342 164.7675 250.3270 15.11533964459850
STRV 1C                 
1 26610U 00072C   08191.51807554 -.00000413  00000-0  00000+0 0  8096
2 26610   7.1047  30.2465 7342406 211.2279  69.6610  2.03459003 56843
OFEQ 5                  
1 27434U 02025A   08206.17413450  .00000685  00000-0  15356-4 0  3098
2 27434 143.4647 118.1273 0025638 182.2395 282.3058 15.05241233343833
HELIOS-2A               
1 28492U 04049A   08206.04379750  .00000047  00000-0  17991-4 0   514
2 28492  98.1323 141.3896 0001296  54.4442 305.6881 14.63822741192131
ESSAIM-1                
1 28494U 04049C   08206.06139305  .00000031  00000-0  13484-4 0  1076
2 28494  98.2064 156.0220 0002757 170.6053 189.5206 14.70163666192875
ESSAIM-2                
1 28495U 04049D   08206.06093360  .00000093  00000-0  23840-4 0  1454
2 28495  98.2073 156.1026 0003760 171.4652 188.6618 14.70161805192870
ESSAIM-3                
1 28496U 04049E   08206.19768159  .00000048  00000-0  16394-4 0   752
2 28496  98.2193 160.0284 0008458 196.8646 163.2287 14.70162214193076
ESSAIM-4                
1 28497U 04049F   08206.06109491  .00000010  00000-0  10150-4 0  1290
2 28497  98.2193 159.9248 0011501 196.3923 163.6913 14.70162105193057
SAR-LUPE 1              
1 29658U 06060A   08206.20835216  .00000455  00000-0  20683-4 0  8047
2 29658  98.1132 271.4340 0022175 320.7289 122.5016 15.26467624 88898
MIDSTAR-1               
1 30773U 07006B   08205.41490779 -.00000304  00000-0  00000+0 0  3956
2 30773  46.0282 309.1995 0011977 216.1822 143.8308 15.23522550 76591
CFESAT                  
1 30777U 07006F   08205.61038386  .00000178  00000-0  16255-4 0  3664
2 30777  35.4345 294.9226 0004236 300.1593  59.8703 15.02537450 75602
NFIRE                   
1 31140U 07014A   08205.63398307  .00002873  00000-0  31631-4 0  5292
2 31140  48.2262 180.3860 0083634 143.1605 217.5128 15.62975266 70951
OFEQ 7                  
1 31601U 07025A   08206.15512115  .00001722  00000-0  55907-4 0  2919
2 31601 141.7491 296.1984 0071273  86.3213 334.4929 15.18700287 62520
SAR-LUPE 2              
1 31797U 07030A   08206.20482574  .00000450  00000-0  20589-4 0  2007
2 31797  98.1992 337.7089 0014385 265.6576 193.6895 15.26463233 59114
SAR-LUPE 3              
1 32283U 07053A   08206.21326817  .00000290  00000-0  14456-4 0  8319
2 32283  98.1585  41.8378 0013057  20.9519  89.8373 15.26449446 40624
SAR-LUPE 4              
1 32750U 08014A   08206.25305064  .00000584  00000-0  25565-4 0  3720
2 32750  98.1508 271.9582 0025129 124.5991 266.9877 15.26468554 18082
